{
  "norad_id": 67220,
  "name": "DISKSAT B",
  "history": [
    {
      "epoch": "2026-03-28T13:35:04.344864",
      "apogee_km": 544.2742872956833,
      "perigee_km": 541.0754880412032,
      "latitude_deg": -43.45123556009823,
      "longitude_deg": -123.6618390402291,
      "semi_major_axis_km": 6920.811887668443,
      "eccentricity": 0.0002311,
      "inclination_deg": 45.0021,
      "raan_deg": 150.9328,
      "arg_perigee_deg": 58.6953,
      "mean_anomaly_deg": 301.4149,
      "mean_motion_rev_day": 15.07881436
    }
  ]
}